OBJECT_NAME,OBJECT_ID,EPOCH,MEAN_MOTION,ECCENTRICITY,INCLINATION,RA_OF_ASC_NODE,ARG_OF_PERICENTER,MEAN_ANOMALY,EPHEMERIS_TYPE,CLASSIFICATION_TYPE,NORAD_CAT_ID,ELEMENT_SET_NO,REV_AT_EPOCH,BSTAR,MEAN_MOTION_DOT,MEAN_MOTION_DDOT
STARLINK-31683,2024-076K,2024-07-28T01:48:03.709152,15.40709099,.000242,43.0012,126.1030,287.8038,72.2555,0,U,59573,999,1601,.47875E-4,.1697E-4,0
STARLINK-31751,2024-076L,2024-07-28T18:32:22.466400,15.40700447,.000186,43.0043,121.8890,274.8923,85.1721,0,U,59574,999,1612,-.43313E-5,-.485E-5,0
STARLINK-31510,2024-076M,2024-07-28T18:16:57.690048,15.40699395,.0001342,42.9928,122.6641,271.7903,88.2799,0,U,59575,999,1611,.94435E-4,.3643E-4,0
STARLINK-31663,2024-076N,2024-07-28T18:29:09.269952,15.40698016,.0002374,42.9992,121.8538,275.2478,84.8107,0,U,59576,999,1612,.10573E-3,.4115E-4,0
STARLINK-31692,2024-076P,2024-07-28T18:38:49.959168,15.40696433,.0001363,42.9975,121.9095,284.3919,75.6786,0,U,59577,999,1612,.25266E-4,.752E-5,0
STARLINK-31685,2024-076Q,2024-07-28T17:44:42.154656,15.40705570,.0001288,43.0018,122.4886,288.0892,71.9825,0,U,59578,999,1611,.53095E-4,.1915E-4,0
STARLINK-31686,2024-076R,2024-07-27T23:01:13.939104,15.40708151,.0001253,43.0000,126.9558,279.1227,80.9487,0,U,59579,999,1599,-.17051E-4,-.1016E-4,0
STARLINK-31668,2024-076S,2024-07-28T18:07:16.525632,15.40700298,.0002298,42.9972,122.6052,275.1994,84.8600,0,U,59580,999,1610,.13291E-4,.251E-5,0
STARLINK-31690,2024-076T,2024-07-28T01:51:17.826624,15.40703443,.0001214,43.0001,126.1157,202.3686,157.7118,0,U,59581,999,1601,.4083E-4,.1403E-4,0
STARLINK-31701,2024-076U,2024-07-28T18:48:31.063968,15.40687149,.0001788,42.9992,121.9588,278.0244,82.0409,0,U,59582,999,1595,-.16033E-4,-.973E-5,0
STARLINK-31697,2024-076V,2024-07-28T18:51:43.881120,15.40704581,.0001337,42.9973,121.9774,278.1644,81.9061,0,U,59583,999,1595,.12851E-3,.5069E-4,0
STARLINK-31662,2024-076W,2024-07-28T18:42:05.360544,15.40679418,.0000931,42.9997,121.9252,280.1071,79.9680,0,U,59584,999,1611,-.12575E-3,-.5548E-4,0
STARLINK-31702,2024-076X,2024-07-28T11:17:49.848576,15.40748183,.0000544,42.9992,123.9099,286.9216,73.1581,0,U,59585,999,1606,-.10983E-3,-.4895E-4,0
STARLINK-31704,2024-076Y,2024-07-28T01:02:17.834208,16.08975994,.0028773,42.9845,96.4603,282.6385,77.1279,0,U,59586,999,1629,.43776E-2,.3426326E-1,.2009E-1
STARLINK-31770,2024-080A,2024-07-28T03:13:23.978784,15.40705789,.0001925,43.0023,159.7907,265.9136,94.1501,0,U,59601,999,1521,.24422E-4,.717E-5,0
STARLINK-31778,2024-080B,2024-07-27T21:25:47.991648,15.40690600,.0002671,42.9997,161.4191,285.0876,74.9685,0,U,59602,999,1517,.29165E-4,.914E-5,0
STARLINK-31776,2024-080C,2024-07-27T23:44:07.368288,15.40706688,.0002728,43.0001,160.4095,278.5465,81.5082,0,U,59603,999,1514,.56731E-3,.23474E-3,0
STARLINK-31765,2024-080D,2024-07-28T03:52:06.851424,15.40704239,.0000994,43.0011,159.9923,276.1164,83.9580,0,U,59604,999,1521,-.16011E-3,-.6986E-4,0
STARLINK-31767,2024-080E,2024-07-28T20:36:25.355520,15.40700792,.0001665,42.9992,155.7637,261.4013,98.6655,0,U,59605,999,1532,.80534E-4,.3062E-4,0
STARLINK-31782,2024-080F,2024-07-27T22:23:39.860736,15.40700344,.0001604,42.9993,160.8536,281.3419,78.7257,0,U,59606,999,1518,.1184E-3,.4645E-4,0
STARLINK-31755,2024-080G,2024-07-28T21:18:10.327392,15.40689370,.0001566,43.0013,155.1105,253.1373,106.9312,0,U,59607,999,1533,-.13283E-4,-.858E-5,0
STARLINK-31585,2024-080H,2024-07-27T21:06:26.932032,15.40692935,.0001998,43.0009,161.3148,261.8268,98.2362,0,U,59608,999,1517,.32673E-4,.1061E-4,0
STARLINK-31667,2024-080J,2024-07-28T13:50:44.608416,15.40704197,.0001186,42.9947,157.0766,256.7830,103.2894,0,U,59609,999,1528,.71441E-4,.2682E-4,0
