STARLINK-31683          
1 59573U 24076K   24210.07504293  .00001697  00000+0  47875-4 0  9994
2 59573  43.0012 126.1030 0002420 287.8038  72.2555 15.40709099 16016
STARLINK-31751          
1 59574U 24076L   24210.77248225 -.00000485  00000+0 -43313-5 0  9992
2 59574  43.0043 121.8890 0001860 274.8923  85.1721 15.40700447 16121
STARLINK-31510          
1 59575U 24076M   24210.76177882  .00003643  00000+0  94435-4 0  9999
2 59575  42.9928 122.6641 0001342 271.7903  88.2799 15.40699395 16111
STARLINK-31663          
1 59576U 24076N   24210.77024618  .00004115  00000+0  10573-3 0  9994
2 59576  42.9992 121.8538 0002374 275.2478  84.8107 15.40698016 16126
STARLINK-31692          
1 59577U 24076P   24210.77696712  .00000752  00000+0  25266-4 0  9994
2 59577  42.9975 121.9095 0001363 284.3919  75.6786 15.40696433 16127
STARLINK-31685          
1 59578U 24076Q   24210.73937679  .00001915  00000+0  53095-4 0  9994
2 59578  43.0018 122.4886 0001288 288.0892  71.9825 15.40705570 16114
STARLINK-31686          
1 59579U 24076R   24209.95918911 -.00001016  00000+0 -17051-4 0  9991
2 59579  43.0000 126.9558 0001253 279.1227  80.9487 15.40708151 15993
STARLINK-31668          
1 59580U 24076S   24210.75505238  .00000251  00000+0  13291-4 0  9997
2 59580  42.9972 122.6052 0002298 275.1994  84.8600 15.40700298 16108
STARLINK-31690          
1 59581U 24076T   24210.07728966  .00001403  00000+0  40830-4 0  9997
2 59581  43.0001 126.1157 0001214 202.3686 157.7118 15.40703443 16015
STARLINK-31701          
1 59582U 24076U   24210.78369287 -.00000973  00000+0 -16033-4 0  9994
2 59582  42.9992 121.9588 0001788 278.0244  82.0409 15.40687149 15959
STARLINK-31697          
1 59583U 24076V   24210.78592455  .00005069  00000+0  12851-3 0  9992
2 59583  42.9973 121.9774 0001337 278.1644  81.9061 15.40704581 15953
STARLINK-31662          
1 59584U 24076W   24210.77922871 -.00005548  00000+0 -12575-3 0  9998
2 59584  42.9997 121.9252 0000931 280.1071  79.9680 15.40679418 16110
STARLINK-31702          
1 59585U 24076X   24210.47071584 -.00004895  00000+0 -10983-3 0  9997
2 59585  42.9992 123.9099 0000544 286.9216  73.1581 15.40748183 16068
STARLINK-31704          
1 59586U 24076Y   24210.04326197  .03426326  20090-1  43776-2 0  9990
2 59586  42.9845  96.4603 0028773 282.6385  77.1279 16.08975994 16295
STARLINK-31770          
1 59601U 24080A   24210.13430531  .00000717  00000+0  24422-4 0  9996
2 59601  43.0023 159.7907 0001925 265.9136  94.1501 15.40705789 15217
STARLINK-31778          
1 59602U 24080B   24209.89291657  .00000914  00000+0  29165-4 0  9990
2 59602  42.9997 161.4191 0002671 285.0876  74.9685 15.40690600 15173
STARLINK-31776          
1 59603U 24080C   24209.98897417  .00023474  00000+0  56731-3 0  9991
2 59603  43.0001 160.4095 0002728 278.5465  81.5082 15.40706688 15144
STARLINK-31765          
1 59604U 24080D   24210.16119041 -.00006986  00000+0 -16011-3 0  9992
2 59604  43.0011 159.9923 0000994 276.1164  83.9580 15.40704239 15219
STARLINK-31767          
1 59605U 24080E   24210.85862680  .00003062  00000+0  80534-4 0  9995
2 59605  42.9992 155.7637 0001665 261.4013  98.6655 15.40700792 15326
STARLINK-31782          
1 59606U 24080F   24209.93310024  .00004645  00000+0  11840-3 0  9994
2 59606  42.9993 160.8536 0001604 281.3419  78.7257 15.40700344 15181
STARLINK-31755          
1 59607U 24080G   24210.88761953 -.00000858  00000+0 -13283-4 0  9990
2 59607  43.0013 155.1105 0001566 253.1373 106.9312 15.40689370 15337
STARLINK-31585          
1 59608U 24080H   24209.87947838  .00001061  00000+0  32673-4 0  9995
2 59608  43.0009 161.3148 0001998 261.8268  98.2362 15.40692935 15178
STARLINK-31667          
1 59609U 24080J   24210.57690519  .00002682  00000+0  71441-4 0  9992
2 59609  42.9947 157.0766 0001186 256.7830 103.2894 15.40704197 15286
